BEIDOU-3 G4 (C62)       
1 56564U 23066A   26116.52179995 -.00000294  00000+0  00000+0 0  9990
2 56564   0.5575 319.9726 0002779 160.7086  61.7753  1.00272471 10879
NVS-01 (IRNSS-1J)       
1 56759U 23076A   26116.36850485 -.00000351  00000+0  00000+0 0  9993
2 56759   2.2879 246.5791 0005464  50.0180 179.9615  1.00268562 10592
COSMOS 2569 (703K)      
1 57517U 23114A   26116.16577962  .00000007  00000+0  00000+0 0  9990
2 57517  65.2744  74.3736 0012417 295.3844  64.4658  2.13103766 21156
BEIDOU-3 M28 (C50)      
1 58654U 23207A   26115.14035340 -.00000030  00000+0  00000+0 0  9999
2 58654  55.7083  64.0917 0004637 322.6569  37.2856  1.86229672 15851
BEIDOU-3 M26 (C48)      
1 58655U 23207B   26116.01176097 -.00000037  00000+0  00000+0 0  9999
2 58655  55.7110  64.0489 0004978 305.0677  54.8583  1.86229668 15857
GSAT0225 (GALILEO 29)   
1 59598U 24079A   26114.44516725  .00000044  00000+0  00000+0 0  9992
2 59598  55.0858 102.5798 0002649 282.4713  80.4437  1.70474282 12407
GSAT0227 (GALILEO 30)   
1 59600U 24079C   26115.21039430  .00000044  00000+0  00000+0 0  9995
2 59600  55.0821 102.5574 0001228  13.4677 346.5305  1.70474357 12465
GSAT0232 (GALILEO 32)   
1 61182U 24167A   26115.45016990 -.00000037  00000+0  00000+0 0  9996
2 61182  55.2008 222.7596 0004844 214.4336 148.2272  1.70474394  9987
GSAT0226 (GALILEO 31)   
1 61183U 24167B   26115.97497142 -.00000038  00000+0  00000+0 0  9997
2 61183  55.1993 222.7524 0001794 193.7985 222.2896  1.70474391  9961
BEIDOU-3 M25 (C47)      
1 61186U 24168B   26115.03474816 -.00000049  00000+0  00000+0 0  9993
2 61186  54.5213 304.0879 0003284 319.3205 222.7466  1.86229960 10794
BEIDOU-3 M27 (C49)      
1 61187U 24168C   26116.44561181 -.00000058  00000+0  00000+0 0  9992
2 61187  54.5157 304.0220 0002607  40.2709 142.7180  1.86230164  8293
GPS BIII-7  (PRN 01)    
1 62339U 24242A   26116.23725212 -.00000085  00000+0  00000+0 0  9999
2 62339  54.8705 336.2872 0016833   0.5482 176.6522  2.00570556 10218
NVS-02 (IRNSS-1K)       
1 62850U 25020A   26114.73146897  .00001151  00000+0  93109-3 0  9991
2 62850  20.7946 278.7977 7348927 113.8013 335.2554  2.17868827  9819
QZS-6 (QZSS/PRN 200)    
1 62876U 25023A   26116.51191992  .00000000  00000+0  00000+0 0  9992
2 62876   0.0129  73.8694 0002688 331.1293  84.2857  1.00271607  4446
COSMOS 2584 (704K)      
1 63130U 25042A   26115.11416719  .00000016  00000+0  00000+0 0  9996
2 63130  65.0560  74.6052 0006790 237.6695 122.2461  2.13103596  8917
GPS BIII-8  (PRN 21)    
1 64202U 25116A   26113.24280751 -.00000081  00000+0  00000+0 0  9999
2 64202  55.1985  33.3417 0009124 335.2523  22.0569  2.00549673  6768
COSMOS 2596 (708K)      
1 65590U 25206B   26115.20205799 -.00000027  00000+0  00000+0 0  9997
2 65590  64.6650 316.8296 0011599 316.9734 227.3176  2.13100414  4780
